ONEWEB-0647             
1 56079U 23043AK  26007.72023007 -.00000025  00000+0 -10029-3 0  9998
2 56079  87.9009 291.2590 0001761  69.8876 290.2443 13.15548377135321
ONEWEB-0651             
1 56080U 23043AL  26007.71548082  .00000035  00000+0  58839-4 0  9995
2 56080  87.9011 291.2538 0001901  77.3556 282.7786 13.15548163136525
ONEWEB-0718             
1 56081U 23043AM  26007.78676172 -.00000181  00000+0 -51361-3 0  9991
2 56081  87.9008 291.2201 0001225  90.1615 269.9656 13.15548557135346
ONEWEB-0561             
1 56710U 23068A   26007.82065718  .00000015  00000+0  61549-5 0  9995
2 56710  87.9219 306.4370 0002132  70.2644 289.8719 13.20772195128339
ONEWEB-0668             
1 56711U 23068B   26007.77134802  .00000098  00000+0  22404-3 0  9997
2 56711  87.9052 260.6993 0001415  97.9790 262.1502 13.16594601130671
ONEWEB-0676             
1 56712U 23068C   26007.77924914 -.00000234  00000+0 -64577-3 0  9990
2 56712  87.9040 260.7169 0001800  75.7069 284.4262 13.16594185130594
ONEWEB-0677             
1 56713U 23068D   26007.80960226  .00000085  00000+0  17663-3 0  9997
2 56713  87.9231 306.4255 0001881  81.0017 279.1329 13.20771699128632
ONEWEB-0678             
1 56714U 23068E   26007.83114676  .00000014  00000+0  41772-5 0  9993
2 56714  87.9015 291.1888 0001670  63.4628 296.6674 13.15548630128204
ONEWEB-0679             
1 56715U 23068F   26007.73810086  .00000073  00000+0  15758-3 0  9999
2 56715  87.9040 260.7078 0001863  91.3767 268.7577 13.16593458130613
ONEWEB-0680             
1 56716U 23068G   26007.77168703  .00000063  00000+0  12185-3 0  9996
2 56716  87.9230 275.9598 0001660  97.2888 262.8435 13.21824831129900
ONEWEB-0681             
1 56717U 23068H   26007.75111179  .00000065  00000+0  12593-3 0  9995
2 56717  87.9221 275.9771 0002666  72.5644 287.5781 13.21828665129892
ONEWEB-0682             
1 56718U 23068J   26007.78123148  .00000108  00000+0  25175-3 0  9996
2 56718  87.9008 291.2108 0001728  92.2043 267.9285 13.15549725128363
ONEWEB-0683             
1 56719U 23068K   26007.72656691 -.00000020  00000+0 -86720-4 0  9994
2 56719  87.9016 291.2086 0001601  83.5676 276.5637 13.15547826128326
ONEWEB-0684             
1 56720U 23068L   26007.81052892 -.00000062  00000+0 -19784-3 0  9990
2 56720  87.9016 291.1858 0001320  20.7106 339.4077 13.15550503128168
ONEWEB-0686             
1 56721U 23068M   26007.83335648 -.00045819  00000+0 -11942+0 0  9999
2 56721  87.9016 260.7401 0001186  84.1651 154.2144 13.17200328  5255
ONEWEB-0694             
1 56722U 23068N   26007.70485197 -.00000012  00000+0 -65863-4 0  9993
2 56722  87.9049 260.6955 0001451  94.3153 265.8143 13.16595761130658
ONEWEB-0696             
1 56723U 23068P   26007.84381890  .00000150  00000+0  36427-3 0  9998
2 56723  87.9006 291.2297 0001636  62.1938 297.9358 13.15547728128289
