[{"OBJECT_NAME":"ONEWEB-0647","OBJECT_ID":"2023-043AK","EPOCH":"2026-01-07T17:17:07.878048","MEAN_MOTION":13.15548377,"ECCENTRICITY":0.0001761,"INCLINATION":87.9009,"RA_OF_ASC_NODE":291.259,"ARG_OF_PERICENTER":69.8876,"MEAN_ANOMALY":290.2443,"EPHEMERIS_TYPE":0,"CLASSIFICATION_TYPE":"U","NORAD_CAT_ID":56079,"ELEMENT_SET_NO":999,"REV_AT_EPOCH":13532,"BSTAR":-0.00010029,"MEAN_MOTION_DOT":-2.5e-7,"MEAN_MOTION_DDOT":0},{"OBJECT_NAME":"ONEWEB-0651","OBJECT_ID":"2023-043AL","EPOCH":"2026-01-07T17:10:17.542848","MEAN_MOTION":13.15548163,"ECCENTRICITY":0.0001901,"INCLINATION":87.9011,"RA_OF_ASC_NODE":291.2538,"ARG_OF_PERICENTER":77.3556,"MEAN_ANOMALY":282.7786,"EPHEMERIS_TYPE":0,"CLASSIFICATION_TYPE":"U","NORAD_CAT_ID":56080,"ELEMENT_SET_NO":999,"REV_AT_EPOCH":13652,"BSTAR":5.8839e-5,"MEAN_MOTION_DOT":3.5e-7,"MEAN_MOTION_DDOT":0},{"OBJECT_NAME":"ONEWEB-0718","OBJECT_ID":"2023-043AM","EPOCH":"2026-01-07T18:52:56.212608","MEAN_MOTION":13.15548557,"ECCENTRICITY":0.0001225,"INCLINATION":87.9008,"RA_OF_ASC_NODE":291.2201,"ARG_OF_PERICENTER":90.1615,"MEAN_ANOMALY":269.9656,"EPHEMERIS_TYPE":0,"CLASSIFICATION_TYPE":"U","NORAD_CAT_ID":56081,"ELEMENT_SET_NO":999,"REV_AT_EPOCH":13534,"BSTAR":-0.00051361,"MEAN_MOTION_DOT":-1.81e-6,"MEAN_MOTION_DDOT":0},{"OBJECT_NAME":"ONEWEB-0561","OBJECT_ID":"2023-068A","EPOCH":"2026-01-07T19:41:44.780352","MEAN_MOTION":13.20772195,"ECCENTRICITY":0.0002132,"INCLINATION":87.9219,"RA_OF_ASC_NODE":306.437,"ARG_OF_PERICENTER":70.2644,"MEAN_ANOMALY":289.8719,"EPHEMERIS_TYPE":0,"CLASSIFICATION_TYPE":"U","NORAD_CAT_ID":56710,"ELEMENT_SET_NO":999,"REV_AT_EPOCH":12833,"BSTAR":6.1549e-6,"MEAN_MOTION_DOT":1.5e-7,"MEAN_MOTION_DDOT":0},{"OBJECT_NAME":"ONEWEB-0668","OBJECT_ID":"2023-068B","EPOCH":"2026-01-07T18:30:44.468928","MEAN_MOTION":13.16594601,"ECCENTRICITY":0.0001415,"INCLINATION":87.9052,"RA_OF_ASC_NODE":260.6993,"ARG_OF_PERICENTER":97.979,"MEAN_ANOMALY":262.1502,"EPHEMERIS_TYPE":0,"CLASSIFICATION_TYPE":"U","NORAD_CAT_ID":56711,"ELEMENT_SET_NO":999,"REV_AT_EPOCH":13067,"BSTAR":0.00022404,"MEAN_MOTION_DOT":9.8e-7,"MEAN_MOTION_DDOT":0},{"OBJECT_NAME":"ONEWEB-0676","OBJECT_ID":"2023-068C","EPOCH":"2026-01-07T18:42:07.125696","MEAN_MOTION":13.16594185,"ECCENTRICITY":0.00018,"INCLINATION":87.904,"RA_OF_ASC_NODE":260.7169,"ARG_OF_PERICENTER":75.7069,"MEAN_ANOMALY":284.4262,"EPHEMERIS_TYPE":0,"CLASSIFICATION_TYPE":"U","NORAD_CAT_ID":56712,"ELEMENT_SET_NO":999,"REV_AT_EPOCH":13059,"BSTAR":-0.00064577,"MEAN_MOTION_DOT":-2.34e-6,"MEAN_MOTION_DDOT":0},{"OBJECT_NAME":"ONEWEB-0677","OBJECT_ID":"2023-068D","EPOCH":"2026-01-07T19:25:49.635264","MEAN_MOTION":13.20771699,"ECCENTRICITY":0.0001881,"INCLINATION":87.9231,"RA_OF_ASC_NODE":306.4255,"ARG_OF_PERICENTER":81.0017,"MEAN_ANOMALY":279.1329,"EPHEMERIS_TYPE":0,"CLASSIFICATION_TYPE":"U","NORAD_CAT_ID":56713,"ELEMENT_SET_NO":999,"REV_AT_EPOCH":12863,"BSTAR":0.00017663,"MEAN_MOTION_DOT":8.5e-7,"MEAN_MOTION_DDOT":0},{"OBJECT_NAME":"ONEWEB-0678","OBJECT_ID":"2023-068E","EPOCH":"2026-01-07T19:56:51.080064","MEAN_MOTION":13.1554863,"ECCENTRICITY":0.000167,"INCLINATION":87.9015,"RA_OF_ASC_NODE":291.1888,"ARG_OF_PERICENTER":63.4628,"MEAN_ANOMALY":296.6674,"EPHEMERIS_TYPE":0,"CLASSIFICATION_TYPE":"U","NORAD_CAT_ID":56714,"ELEMENT_SET_NO":999,"REV_AT_EPOCH":12820,"BSTAR":4.1772e-6,"MEAN_MOTION_DOT":1.4e-7,"MEAN_MOTION_DDOT":0},{"OBJECT_NAME":"ONEWEB-0679","OBJECT_ID":"2023-068F","EPOCH":"2026-01-07T17:42:51.914304","MEAN_MOTION":13.16593458,"ECCENTRICITY":0.0001863,"INCLINATION":87.904,"RA_OF_ASC_NODE":260.7078,"ARG_OF_PERICENTER":91.3767,"MEAN_ANOMALY":268.7577,"EPHEMERIS_TYPE":0,"CLASSIFICATION_TYPE":"U","NORAD_CAT_ID":56715,"ELEMENT_SET_NO":999,"REV_AT_EPOCH":13061,"BSTAR":0.00015758,"MEAN_MOTION_DOT":7.3e-7,"MEAN_MOTION_DDOT":0},{"OBJECT_NAME":"ONEWEB-0680","OBJECT_ID":"2023-068G","EPOCH":"2026-01-07T18:31:13.759392","MEAN_MOTION":13.21824831,"ECCENTRICITY":0.000166,"INCLINATION":87.923,"RA_OF_ASC_NODE":275.9598,"ARG_OF_PERICENTER":97.2888,"MEAN_ANOMALY":262.8435,"EPHEMERIS_TYPE":0,"CLASSIFICATION_TYPE":"U","NORAD_CAT_ID":56716,"ELEMENT_SET_NO":999,"REV_AT_EPOCH":12990,"BSTAR":0.00012185,"MEAN_MOTION_DOT":6.3e-7,"MEAN_MOTION_DDOT":0},{"OBJECT_NAME":"ONEWEB-0681","OBJECT_ID":"2023-068H","EPOCH":"2026-01-07T18:01:36.058656","MEAN_MOTION":13.21828665,"ECCENTRICITY":0.0002666,"INCLINATION":87.9221,"RA_OF_ASC_NODE":275.9771,"ARG_OF_PERICENTER":72.5644,"MEAN_ANOMALY":287.5781,"EPHEMERIS_TYPE":0,"CLASSIFICATION_TYPE":"U","NORAD_CAT_ID":56717,"ELEMENT_SET_NO":999,"REV_AT_EPOCH":12989,"BSTAR":0.00012593,"MEAN_MOTION_DOT":6.5e-7,"MEAN_MOTION_DDOT":0},{"OBJECT_NAME":"ONEWEB-0682","OBJECT_ID":"2023-068J","EPOCH":"2026-01-07T18:44:58.399872","MEAN_MOTION":13.15549725,"ECCENTRICITY":0.0001728,"INCLINATION":87.9008,"RA_OF_ASC_NODE":291.2108,"ARG_OF_PERICENTER":92.2043,"MEAN_ANOMALY":267.9285,"EPHEMERIS_TYPE":0,"CLASSIFICATION_TYPE":"U","NORAD_CAT_ID":56718,"ELEMENT_SET_NO":999,"REV_AT_EPOCH":12836,"BSTAR":0.00025175,"MEAN_MOTION_DOT":1.08e-6,"MEAN_MOTION_DDOT":0},{"OBJECT_NAME":"ONEWEB-0683","OBJECT_ID":"2023-068K","EPOCH":"2026-01-07T17:26:15.381024","MEAN_MOTION":13.15547826,"ECCENTRICITY":0.0001601,"INCLINATION":87.9016,"RA_OF_ASC_NODE":291.2086,"ARG_OF_PERICENTER":83.5676,"MEAN_ANOMALY":276.5637,"EPHEMERIS_TYPE":0,"CLASSIFICATION_TYPE":"U","NORAD_CAT_ID":56719,"ELEMENT_SET_NO":999,"REV_AT_EPOCH":12832,"BSTAR":-8.672e-5,"MEAN_MOTION_DOT":-2.0e-7,"MEAN_MOTION_DDOT":0},{"OBJECT_NAME":"ONEWEB-0684","OBJECT_ID":"2023-068L","EPOCH":"2026-01-07T19:27:09.698688","MEAN_MOTION":13.15550503,"ECCENTRICITY":0.000132,"INCLINATION":87.9016,"RA_OF_ASC_NODE":291.1858,"ARG_OF_PERICENTER":20.7106,"MEAN_ANOMALY":339.4077,"EPHEMERIS_TYPE":0,"CLASSIFICATION_TYPE":"U","NORAD_CAT_ID":56720,"ELEMENT_SET_NO":999,"REV_AT_EPOCH":12816,"BSTAR":-0.00019784,"MEAN_MOTION_DOT":-6.2e-7,"MEAN_MOTION_DDOT":0},{"OBJECT_NAME":"ONEWEB-0686","OBJECT_ID":"2023-068M","EPOCH":"2026-01-07T20:00:01.999872","MEAN_MOTION":13.17200328,"ECCENTRICITY":0.0001186,"INCLINATION":87.9016,"RA_OF_ASC_NODE":260.7401,"ARG_OF_PERICENTER":84.1651,"MEAN_ANOMALY":154.2144,"EPHEMERIS_TYPE":0,"CLASSIFICATION_TYPE":"U","NORAD_CAT_ID":56721,"ELEMENT_SET_NO":999,"REV_AT_EPOCH":525,"BSTAR":-0.11942,"MEAN_MOTION_DOT":-0.00045819,"MEAN_MOTION_DDOT":0},{"OBJECT_NAME":"ONEWEB-0694","OBJECT_ID":"2023-068N","EPOCH":"2026-01-07T16:54:59.210208","MEAN_MOTION":13.16595761,"ECCENTRICITY":0.0001451,"INCLINATION":87.9049,"RA_OF_ASC_NODE":260.6955,"ARG_OF_PERICENTER":94.3153,"MEAN_ANOMALY":265.8143,"EPHEMERIS_TYPE":0,"CLASSIFICATION_TYPE":"U","NORAD_CAT_ID":56722,"ELEMENT_SET_NO":999,"REV_AT_EPOCH":13065,"BSTAR":-6.5863e-5,"MEAN_MOTION_DOT":-1.2e-7,"MEAN_MOTION_DDOT":0},{"OBJECT_NAME":"ONEWEB-0696","OBJECT_ID":"2023-068P","EPOCH":"2026-01-07T20:15:05.952960","MEAN_MOTION":13.15547728,"ECCENTRICITY":0.0001636,"INCLINATION":87.9006,"RA_OF_ASC_NODE":291.2297,"ARG_OF_PERICENTER":62.1938,"MEAN_ANOMALY":297.9358,"EPHEMERIS_TYPE":0,"CLASSIFICATION_TYPE":"U","NORAD_CAT_ID":56723,"ELEMENT_SET_NO":999,"REV_AT_EPOCH":12828,"BSTAR":0.00036427,"MEAN_MOTION_DOT":1.5e-6,"MEAN_MOTION_DDOT":0}]
